{
    "links": {
        "self": "http://www.neowsapp.com/rest/v1/neo/3843786?api_key=iIulBulltgU6a56xZRHN4H3l9WmuAYTsLGpBGhQ2"
    },
    "id": "3843786",
    "neo_reference_id": "3843786",
    "name": "(2019 RJ1)",
    "designation": "2019 RJ1",
    "nasa_jpl_url": "http://ssd.jpl.nasa.gov/sbdb.cgi?sstr=3843786",
    "absolute_magnitude_h": 26.9,
    "estimated_diameter": {
        "kilometers": {
            "estimated_diameter_min": 0.0110803882,
            "estimated_diameter_max": 0.0247765013
        },
        "meters": {
            "estimated_diameter_min": 11.0803882126,
            "estimated_diameter_max": 24.7765012606
        },
        "miles": {
            "estimated_diameter_min": 0.0068850319,
            "estimated_diameter_max": 0.0153953994
        },
        "feet": {
            "estimated_diameter_min": 36.3529808636,
            "estimated_diameter_max": 81.2877363957
        }
    },
    "is_potentially_hazardous_asteroid": false,
    "close_approach_data": [
        {
            "close_approach_date": "2019-09-12",
            "close_approach_date_full": "2019-Sep-12 07:40",
            "epoch_date_close_approach": 1568274000000,
            "relative_velocity": {
                "kilometers_per_second": "10.4471478074",
                "kilometers_per_hour": "37609.732106725",
                "miles_per_hour": "23369.2249304259"
            },
            "miss_distance": {
                "astronomical": "0.0277097142",
                "lunar": "10.7790788238",
                "kilometers": "4145314.222628754",
                "miles": "2575778.8174906452"
            },
            "orbiting_body": "Earth"
        }
    ],
    "orbital_data": {
        "orbit_id": "2",
        "orbit_determination_date": "2019-09-07 05:54:25",
        "first_observation_date": "2019-09-04",
        "last_observation_date": "2019-09-06",
        "data_arc_in_days": 2,
        "observations_used": 18,
        "orbit_uncertainty": "8",
        "minimum_orbit_intersection": ".00412293",
        "jupiter_tisserand_invariant": "3.191",
        "epoch_osculation": "2458732.5",
        "eccentricity": ".6124979221290265",
        "semi_major_axis": "2.476952374841258",
        "inclination": "1.20034537315376",
        "ascending_node_longitude": "214.313705623029",
        "orbital_period": "1423.884988342949",
        "perihelion_distance": ".9598241920384298",
        "perihelion_argument": "168.302521428968",
        "aphelion_distance": "3.994080557644087",
        "perihelion_time": "2458764.333799694039",
        "mean_anomaly": "351.9514792390705",
        "mean_motion": ".2528294089390963",
        "equinox": "J2000",
        "orbit_class": {
            "orbit_class_type": "APO",
            "orbit_class_description": "Near-Earth asteroid orbits which cross the Earth’s orbit similar to that of 1862 Apollo",
            "orbit_class_range": "a (semi-major axis) > 1.0 AU; q (perihelion) < 1.017 AU"
        }
    },
    "is_sentry_object": false
}